start=new Date('2022-09-10T00:00:00.000Z').valueOf();
sats=[{"MEAN_MOTION_DDOT":"0.0000000000000","COUNTRY_CODE":"US","ECCENTRICITY":"0.00010990","GP_ID":"212127138","MEAN_ANOMALY":"277.8553","FILE":"3564914","CENTER_NAME":"EARTH","EPHEMERIS_TYPE":"0","LAUNCH_DATE":"2020-10-24","INCLINATION":"53.0524","SITE":"AFETR","REF_FRAME":"TEME","OBJECT_ID":"2020-074D","EPOCH":"2022-09-09T12:08:22.410816","PERIAPSIS":"529.620","CLASSIFICATION_TYPE":"U","MEAN_MOTION":"15.11909437","DECAY_DATE":null,"MEAN_ELEMENT_THEORY":"SGP4","RCS_SIZE":"LARGE","RA_OF_ASC_NODE":"294.8951","ARG_OF_PERICENTER":"82.2563","TIME_SYSTEM":"UTC","PERIOD":"95.244","TLE_LINE2":"2 46742  53.0524 294.8951 0001099  82.2563 277.8553 15.11909437104177","TLE_LINE1":"1 46742U 20074D   22252.50581494  .00056063  00000-0  32279-2 0  9990","SEMIMAJOR_AXIS":"6908.514","REV_AT_EPOCH":"10417","NORAD_CAT_ID":"46742","MEAN_MOTION_DOT":"0.00056063","APOAPSIS":"531.138","BSTAR":"0.00322790000000","ELEMENT_SET_NO":"999","OBJECT_TYPE":"PAYLOAD","OBJECT_NAME":"STARLINK-1872"},{"GP_ID":"212127388","COUNTRY_CODE":"US","ECCENTRICITY":"0.00013550","MEAN_MOTION_DDOT":"0.0000000000000","FILE":"3564914","CENTER_NAME":"EARTH","MEAN_ANOMALY":"271.6513","OBJECT_ID":"2020-074E","SITE":"AFETR","REF_FRAME":"TEME","LAUNCH_DATE":"2020-10-24","EPHEMERIS_TYPE":"0","INCLINATION":"53.0547","CLASSIFICATION_TYPE":"U","PERIAPSIS":"546.313","EPOCH":"2022-09-09T13:11:22.089408","TIME_SYSTEM":"UTC","RCS_SIZE":"LARGE","RA_OF_ASC_NODE":"294.9117","ARG_OF_PERICENTER":"88.4631","DECAY_DATE":null,"MEAN_ELEMENT_THEORY":"SGP4","MEAN_MOTION":"15.06387796","NORAD_CAT_ID":"46743","MEAN_MOTION_DOT":"-0.00000687","SEMIMAJOR_AXIS":"6925.386","REV_AT_EPOCH":"10418","TLE_LINE2":"2 46743  53.0547 294.9117 0001355  88.4631 271.6513 15.06387796104188","PERIOD":"95.593","TLE_LINE1":"1 46743U 20074E   22252.54956122 -.00000687  00000-0 -27236-4 0  9991","APOAPSIS":"548.189","OBJECT_NAME":"STARLINK-1892","OBJECT_TYPE":"PAYLOAD","ELEMENT_SET_NO":"999","BSTAR":"-0.00002723600000"},{"TIME_SYSTEM":"UTC","RA_OF_ASC_NODE":"295.4454","RCS_SIZE":"LARGE","ARG_OF_PERICENTER":"58.8573","DECAY_DATE":null,"MEAN_ELEMENT_THEORY":"SGP4","MEAN_MOTION":"15.06404271","NORAD_CAT_ID":"46744","MEAN_MOTION_DOT":"0.00004046","SEMIMAJOR_AXIS":"6925.335","REV_AT_EPOCH":"10416","PERIOD":"95.592","TLE_LINE2":"2 46744  53.0535 295.4454 0001872  58.8573 301.2600 15.06404271104169","TLE_LINE1":"1 46744U 20074F   22252.43434755  .00004046  00000-0  29031-3 0  9998","APOAPSIS":"548.497","OBJECT_NAME":"STARLINK-1894","OBJECT_TYPE":"PAYLOAD","BSTAR":"0.00029031000000","ELEMENT_SET_NO":"999","GP_ID":"212128140","COUNTRY_CODE":"US","ECCENTRICITY":"0.00018720","MEAN_MOTION_DDOT":"0.0000000000000","CENTER_NAME":"EARTH","FILE":"3564914","MEAN_ANOMALY":"301.2600","OBJECT_ID":"2020-074F","REF_FRAME":"TEME","SITE":"AFETR","LAUNCH_DATE":"2020-10-24","EPHEMERIS_TYPE":"0","INCLINATION":"53.0535","CLASSIFICATION_TYPE":"U","PERIAPSIS":"545.904","EPOCH":"2022-09-09T10:25:27.628320"},{"EPHEMERIS_TYPE":"0","LAUNCH_DATE":"2020-10-24","INCLINATION":"53.0496","REF_FRAME":"TEME","SITE":"AFETR","OBJECT_ID":"2020-074G","EPOCH":"2022-09-09T06:55:53.540832","PERIAPSIS":"369.697","CLASSIFICATION_TYPE":"U","MEAN_MOTION_DDOT":"0.0000000000000","ECCENTRICITY":"0.00016970","COUNTRY_CODE":"US","GP_ID":"212126627","MEAN_ANOMALY":"288.5326","FILE":"3564914","CENTER_NAME":"EARTH","APOAPSIS":"371.988","BSTAR":"0.00419020000000","ELEMENT_SET_NO":"999","OBJECT_TYPE":"PAYLOAD","OBJECT_NAME":"STARLINK-1898","MEAN_MOTION":"15.65834321","DECAY_DATE":null,"MEAN_ELEMENT_THEORY":"SGP4","ARG_OF_PERICENTER":"71.5873","RA_OF_ASC_NODE":"216.6346","RCS_SIZE":"LARGE","TIME_SYSTEM":"UTC","TLE_LINE1":"1 46745U 20074G   22252.28881413  .00458004  00000-0  41902-2 0  9996","PERIOD":"91.964","TLE_LINE2":"2 46745  53.0496 216.6346 0001697  71.5873 288.5326 15.65834321105263","REV_AT_EPOCH":"10526","SEMIMAJOR_AXIS":"6748.977","MEAN_MOTION_DOT":"0.00458004","NORAD_CAT_ID":"46745"},{"MEAN_ANOMALY":"292.4092","CENTER_NAME":"EARTH","FILE":"3564914","COUNTRY_CODE":"US","ECCENTRICITY":"0.00013740","MEAN_MOTION_DDOT":"0.0000000000000","GP_ID":"212126639","EPOCH":"2022-09-09T12:23:35.937024","CLASSIFICATION_TYPE":"U","PERIAPSIS":"546.256","REF_FRAME":"TEME","SITE":"AFETR","INCLINATION":"53.0534","LAUNCH_DATE":"2020-10-24","EPHEMERIS_TYPE":"0","OBJECT_ID":"2020-074H","PERIOD":"95.592","TLE_LINE2":"2 46746  53.0534 295.0779 0001374  67.7042 292.4092 15.06401905104171","TLE_LINE1":"1 46746U 20074H   22252.51638816  .00002283  00000-0  17213-3 0  9993","NORAD_CAT_ID":"46746","MEAN_MOTION_DOT":"0.00002283","REV_AT_EPOCH":"10417","SEMIMAJOR_AXIS":"6925.343","MEAN_ELEMENT_THEORY":"SGP4","DECAY_DATE":null,"MEAN_MOTION":"15.06401905","TIME_SYSTEM":"UTC","RA_OF_ASC_NODE":"295.0779","RCS_SIZE":"LARGE","ARG_OF_PERICENTER":"67.7042","ELEMENT_SET_NO":"999","BSTAR":"0.00017213000000","OBJECT_NAME":"STARLINK-1905","OBJECT_TYPE":"PAYLOAD","APOAPSIS":"548.159"},{"MEAN_MOTION_DOT":"0.00001845","NORAD_CAT_ID":"46747","SEMIMAJOR_AXIS":"6925.364","REV_AT_EPOCH":"10418","TLE_LINE1":"1 46747U 20074J   22252.56430109  .00001845  00000-0  14275-3 0  9992","TLE_LINE2":"2 46747  53.0536 294.8693 0001271  90.5921 269.5213 15.06394880104186","PERIOD":"95.592","TIME_SYSTEM":"UTC","ARG_OF_PERICENTER":"90.5921","RA_OF_ASC_NODE":"294.8693","RCS_SIZE":"LARGE","MEAN_ELEMENT_THEORY":"SGP4","DECAY_DATE":null,"MEAN_MOTION":"15.06394880","OBJECT_NAME":"STARLINK-1908","OBJECT_TYPE":"PAYLOAD","BSTAR":"0.00014275000000","ELEMENT_SET_NO":"999","APOAPSIS":"548.109","CENTER_NAME":"EARTH","FILE":"3565505","MEAN_ANOMALY":"269.5213","GP_ID":"212166665","ECCENTRICITY":"0.00012710","COUNTRY_CODE":"US","MEAN_MOTION_DDOT":"0.0000000000000","CLASSIFICATION_TYPE":"U","PERIAPSIS":"546.349","EPOCH":"2022-09-09T13:32:35.614176","OBJECT_ID":"2020-074J","REF_FRAME":"TEME","SITE":"AFETR","INCLINATION":"53.0536","LAUNCH_DATE":"2020-10-24","EPHEMERIS_TYPE":"0"},{"CLASSIFICATION_TYPE":"U","PERIAPSIS":"546.234","EPOCH":"2022-09-09T12:07:41.105568","OBJECT_ID":"2020-074K","SITE":"AFETR","REF_FRAME":"TEME","LAUNCH_DATE":"2020-10-24","EPHEMERIS_TYPE":"0","INCLINATION":"53.0531","CENTER_NAME":"EARTH","FILE":"3564914","MEAN_ANOMALY":"272.8176","GP_ID":"212127641","ECCENTRICITY":"0.00013910","COUNTRY_CODE":"US","MEAN_MOTION_DDOT":"0.0000000000000","OBJECT_NAME":"STARLINK-1910","OBJECT_TYPE":"PAYLOAD","BSTAR":"0.00038991000000","ELEMENT_SET_NO":"999","APOAPSIS":"548.160","MEAN_MOTION_DOT":"0.00005532","NORAD_CAT_ID":"46748","SEMIMAJOR_AXIS":"6925.332","REV_AT_EPOCH":"10417","TLE_LINE1":"1 46748U 20074K   22252.50533687  .00005532  00000-0  38991-3 0  9990","TLE_LINE2":"2 46748  53.0531 295.1267 0001391  87.2972 272.8176 15.06405435104178","PERIOD":"95.592","TIME_SYSTEM":"UTC","ARG_OF_PERICENTER":"87.2972","RA_OF_ASC_NODE":"295.1267","RCS_SIZE":"LARGE","DECAY_DATE":null,"MEAN_ELEMENT_THEORY":"SGP4","MEAN_MOTION":"15.06405435"},{"PERIAPSIS":"546.143","CLASSIFICATION_TYPE":"U","EPOCH":"2022-09-09T12:18:18.734112","OBJECT_ID":"2020-074L","LAUNCH_DATE":"2020-10-24","INCLINATION":"53.0531","EPHEMERIS_TYPE":"0","SITE":"AFETR","REF_FRAME":"TEME","CENTER_NAME":"EARTH","FILE":"3564914","MEAN_ANOMALY":"287.1077","GP_ID":"212127127","MEAN_MOTION_DDOT":"0.0000000000000","ECCENTRICITY":"0.00015150","COUNTRY_CODE":"US","OBJECT_TYPE":"PAYLOAD","OBJECT_NAME":"STARLINK-1911","BSTAR":"0.00061232000000","ELEMENT_SET_NO":"999","APOAPSIS":"548.242","SEMIMAJOR_AXIS":"6925.327","REV_AT_EPOCH":"10417","MEAN_MOTION_DOT":"0.00008852","NORAD_CAT_ID":"46749","TLE_LINE1":"1 46749U 20074L   22252.51271683  .00008852  00000-0  61232-3 0  9999","TLE_LINE2":"2 46749  53.0531 295.0997 0001515  73.0078 287.1077 15.06406903104176","PERIOD":"95.592","ARG_OF_PERICENTER":"73.0078","RA_OF_ASC_NODE":"295.0997","RCS_SIZE":"LARGE","TIME_SYSTEM":"UTC","MEAN_MOTION":"15.06406903","DECAY_DATE":null,"MEAN_ELEMENT_THEORY":"SGP4"},{"BSTAR":"0.00031606000000","ELEMENT_SET_NO":"999","OBJECT_NAME":"STARLINK-1920","OBJECT_TYPE":"PAYLOAD","APOAPSIS":"548.013","PERIOD":"95.591","TLE_LINE2":"2 46751  53.0539 295.4157 0001216 106.5442 253.5681 15.06413979104162","TLE_LINE1":"1 46751U 20074N   22252.44266577  .00004431  00000-0  31606-3 0  9991","NORAD_CAT_ID":"46751","MEAN_MOTION_DOT":"0.00004431","SEMIMAJOR_AXIS":"6925.306","REV_AT_EPOCH":"10416","DECAY_DATE":null,"MEAN_ELEMENT_THEORY":"SGP4","MEAN_MOTION":"15.06413979","TIME_SYSTEM":"UTC","RCS_SIZE":"LARGE","RA_OF_ASC_NODE":"295.4157","ARG_OF_PERICENTER":"106.5442","EPOCH":"2022-09-09T10:37:26.322528","CLASSIFICATION_TYPE":"U","PERIAPSIS":"546.329","REF_FRAME":"TEME","SITE":"AFETR","INCLINATION":"53.0539","LAUNCH_DATE":"2020-10-24","EPHEMERIS_TYPE":"0","OBJECT_ID":"2020-074N","MEAN_ANOMALY":"253.5681","CENTER_NAME":"EARTH","FILE":"3564914","COUNTRY_CODE":"US","ECCENTRICITY":"0.00012160","MEAN_MOTION_DDOT":"0.0000000000000","GP_ID":"212127139"},{"GP_ID":"212127389","MEAN_MOTION_DDOT":"0.0000000000000","ECCENTRICITY":"0.00015280","COUNTRY_CODE":"US","CENTER_NAME":"EARTH","FILE":"3564914","MEAN_ANOMALY":"288.7962","OBJECT_ID":"2020-074P","INCLINATION":"53.0548","LAUNCH_DATE":"2020-10-24","EPHEMERIS_TYPE":"0","SITE":"AFETR","REF_FRAME":"TEME","PERIAPSIS":"546.135","CLASSIFICATION_TYPE":"U","EPOCH":"2022-09-09T12:28:53.919264","ARG_OF_PERICENTER":"71.3193","RA_OF_ASC_NODE":"295.0535","RCS_SIZE":"LARGE","TIME_SYSTEM":"UTC","MEAN_MOTION":"15.06406521","MEAN_ELEMENT_THEORY":"SGP4","DECAY_DATE":null,"REV_AT_EPOCH":"10417","SEMIMAJOR_AXIS":"6925.329","MEAN_MOTION_DOT":"0.00003299","NORAD_CAT_ID":"46752","TLE_LINE1":"1 46752U 20074P   22252.52006851  .00003299  00000-0  24022-3 0  9993","PERIOD":"95.592","TLE_LINE2":"2 46752  53.0548 295.0535 0001528  71.3193 288.7962 15.06406521104175","APOAPSIS":"548.252","OBJECT_TYPE":"PAYLOAD","OBJECT_NAME":"STARLINK-1921","BSTAR":"0.00024022000000","ELEMENT_SET_NO":"999"}];
